{
    "links": {
        "self": "http://www.neowsapp.com/rest/v1/neo/3759249?api_key=iIulBulltgU6a56xZRHN4H3l9WmuAYTsLGpBGhQ2"
    },
    "id": "3759249",
    "neo_reference_id": "3759249",
    "name": "(2016 RW17)",
    "designation": "2016 RW17",
    "nasa_jpl_url": "http://ssd.jpl.nasa.gov/sbdb.cgi?sstr=3759249",
    "absolute_magnitude_h": 24.8,
    "estimated_diameter": {
        "kilometers": {
            "estimated_diameter_min": 0.0291443905,
            "estimated_diameter_max": 0.0651688382
        },
        "meters": {
            "estimated_diameter_min": 29.1443904535,
            "estimated_diameter_max": 65.1688382168
        },
        "miles": {
            "estimated_diameter_min": 0.018109479,
            "estimated_diameter_max": 0.0404940262
        },
        "feet": {
            "estimated_diameter_min": 95.6180819754,
            "estimated_diameter_max": 213.8085311752
        }
    },
    "is_potentially_hazardous_asteroid": false,
    "close_approach_data": [
        {
            "close_approach_date": "2014-09-03",
            "close_approach_date_full": "2014-Sep-03 02:28",
            "epoch_date_close_approach": 1409711280000,
            "relative_velocity": {
                "kilometers_per_second": "10.3311606893",
                "kilometers_per_hour": "37192.1784814523",
                "miles_per_hour": "23109.7733458779"
            },
            "miss_distance": {
                "astronomical": "0.0859862031",
                "lunar": "33.4486330059",
                "kilometers": "12863352.833147397",
                "miles": "7992916.8140401986"
            },
            "orbiting_body": "Earth"
        },
        {
            "close_approach_date": "2016-08-29",
            "close_approach_date_full": "2016-Aug-29 22:39",
            "epoch_date_close_approach": 1472510340000,
            "relative_velocity": {
                "kilometers_per_second": "9.7776751454",
                "kilometers_per_hour": "35199.6305236014",
                "miles_per_hour": "21871.6815328455"
            },
            "miss_distance": {
                "astronomical": "0.0567559749",
                "lunar": "22.0780742361",
                "kilometers": "8490572.954813463",
                "miles": "5275797.3921452694"
            },
            "orbiting_body": "Earth"
        },
        {
            "close_approach_date": "2018-08-26",
            "close_approach_date_full": "2018-Aug-26 15:14",
            "epoch_date_close_approach": 1535296440000,
            "relative_velocity": {
                "kilometers_per_second": "9.5057530291",
                "kilometers_per_hour": "34220.7109049249",
                "miles_per_hour": "21263.4189508963"
            },
            "miss_distance": {
                "astronomical": "0.068519887",
                "lunar": "26.654236043",
                "kilometers": "10250429.14784069",
                "miles": "6369321.323113922"
            },
            "orbiting_body": "Earth"
        }
    ],
    "orbital_data": {
        "orbit_id": "3",
        "orbit_determination_date": "2017-04-06 08:24:06",
        "first_observation_date": "2016-09-05",
        "last_observation_date": "2016-09-17",
        "data_arc_in_days": 12,
        "observations_used": 37,
        "orbit_uncertainty": "8",
        "minimum_orbit_intersection": ".0554372",
        "jupiter_tisserand_invariant": "4.287",
        "epoch_osculation": "2457638.5",
        "eccentricity": ".3313679978177649",
        "semi_major_axis": "1.583241026813851",
        "inclination": "15.98904585420471",
        "ascending_node_longitude": "338.4019104061466",
        "orbital_period": "727.6440456048693",
        "perihelion_distance": "1.058605617695603",
        "perihelion_argument": "345.9753262259125",
        "aphelion_distance": "2.107876435932099",
        "perihelion_time": "2457619.216606387463",
        "mean_anomaly": "9.540408861234642",
        "mean_motion": ".4947474004281069",
        "equinox": "J2000",
        "orbit_class": {
            "orbit_class_type": "AMO",
            "orbit_class_description": "Near-Earth asteroid orbits similar to that of 1221 Amor",
            "orbit_class_range": "1.017 AU < q (perihelion) < 1.3 AU"
        }
    },
    "is_sentry_object": false
}